{"fetched_at":"2026-07-23T07:06:09.003Z","source":"https://celestrak.org/NORAD/elements/gp.php?NAME=UMBRA&FORMAT=JSON","constellation":"umbra","records":[{"OBJECT_NAME":"UMBRA-07","OBJECT_ID":"2023-174AT","EPOCH":"2026-07-22T21:40:18.959808","CLASSIFICATION_TYPE":"U","MEAN_MOTION":15.09717202,"ECCENTRICITY":0.0001386,"INCLINATION":97.3771,"RA_OF_ASC_NODE":258.3225,"ARG_OF_PERICENTER":338.0857,"MEAN_ANOMALY":22.0313,"EPHEMERIS_TYPE":0,"NORAD_CAT_ID":58297,"ELEMENT_SET_NO":999,"REV_AT_EPOCH":14880,"BSTAR":0.00070009854,"MEAN_MOTION_DOT":0.00011236,"MEAN_MOTION_DDOT":0},{"OBJECT_NAME":"UMBRA-09","OBJECT_ID":"2024-149CB","EPOCH":"2026-07-22T17:10:57.341280","CLASSIFICATION_TYPE":"U","MEAN_MOTION":15.19013919,"ECCENTRICITY":0.00021651,"INCLINATION":97.6964,"RA_OF_ASC_NODE":291.5546,"ARG_OF_PERICENTER":186.332,"MEAN_ANOMALY":173.7887,"EPHEMERIS_TYPE":0,"NORAD_CAT_ID":60541,"ELEMENT_SET_NO":999,"REV_AT_EPOCH":10611,"BSTAR":0.00078260845,"MEAN_MOTION_DOT":0.00016336,"MEAN_MOTION_DDOT":0},{"OBJECT_NAME":"UMBRA-10","OBJECT_ID":"2024-149CH","EPOCH":"2026-07-22T17:10:18.552864","CLASSIFICATION_TYPE":"U","MEAN_MOTION":15.19014618,"ECCENTRICITY":0.00020869,"INCLINATION":97.6969,"RA_OF_ASC_NODE":291.5849,"ARG_OF_PERICENTER":154.0872,"MEAN_ANOMALY":206.0467,"EPHEMERIS_TYPE":0,"NORAD_CAT_ID":60547,"ELEMENT_SET_NO":999,"REV_AT_EPOCH":10612,"BSTAR":0.00086264088,"MEAN_MOTION_DOT":0.00018019,"MEAN_MOTION_DDOT":0},{"OBJECT_NAME":"UMBRA-11","OBJECT_ID":"2025-276CL","EPOCH":"2026-07-22T04:12:21.720960","CLASSIFICATION_TYPE":"U","MEAN_MOTION":15.27974369,"ECCENTRICITY":0.00032796,"INCLINATION":97.4179,"RA_OF_ASC_NODE":277.6183,"ARG_OF_PERICENTER":167.4901,"MEAN_ANOMALY":192.6421,"EPHEMERIS_TYPE":0,"NORAD_CAT_ID":66748,"ELEMENT_SET_NO":999,"REV_AT_EPOCH":3583,"BSTAR":0.00085693774,"MEAN_MOTION_DOT":0.00023367,"MEAN_MOTION_DDOT":0},{"OBJECT_NAME":"UMBRA-12","OBJECT_ID":"2026-004J","EPOCH":"2026-07-22T17:06:04.181760","CLASSIFICATION_TYPE":"U","MEAN_MOTION":14.89576175,"ECCENTRICITY":0.00068102,"INCLINATION":97.8033,"RA_OF_ASC_NODE":201.998,"ARG_OF_PERICENTER":32.2411,"MEAN_ANOMALY":327.9222,"EPHEMERIS_TYPE":0,"NORAD_CAT_ID":67371,"ELEMENT_SET_NO":999,"REV_AT_EPOCH":2859,"BSTAR":0.00040299608,"MEAN_MOTION_DOT":0.00003792,"MEAN_MOTION_DDOT":0}]}
