{"epoch":1784799577,"count":18318,"objects":[{"id":"58297","name":"UMBRA-07","type":"PAYLOAD","l1":"1 58297U 23174AT  26203.90299722  .00011236  00000-0  70010-3 0  9995","l2":"2 58297  97.3771 258.3225 0001386 338.0857  22.0313 15.09717202148802"},{"id":"60541","name":"UMBRA-09","type":"PAYLOAD","l1":"1 60541U 24149CB  26203.71594145  .00016336  00000-0  78261-3 0  9991","l2":"2 60541  97.6964 291.5546 0002165 186.3320 173.7887 15.19013919106117"},{"id":"60547","name":"UMBRA-10","type":"PAYLOAD","l1":"1 60547U 24149CH  26203.71549251  .00018019  00000-0  86264-3 0  9997","l2":"2 60547  97.6969 291.5849 0002087 154.0872 206.0467 15.19014618106123"},{"id":"66748","name":"UMBRA-11","type":"PAYLOAD","l1":"1 66748U 25276CL  26203.17525140  .00023367  00000-0  85694-3 0  9997","l2":"2 66748  97.4179 277.6183 0003280 167.4901 192.6421 15.27974369 35832"},{"id":"67371","name":"UMBRA-12","type":"PAYLOAD","l1":"1 67371U 26004J   26203.71254840  .00003792  00000-0  40300-3 0  9991","l2":"2 67371  97.8033 201.9980 0006810  32.2411 327.9222 14.89576175 28597"}]}